Skip Page Navigation
NASA Logo - Jet Propulsion Laboratory				+ View the NASA Portal
+ Center for Near-Earth Object Studies			
JPL Home	Earth	Solar System	Stars & Galaxies	Technology

JPL Solar System Dynamics
BODIES		ORBITS		EPHEMERIDES		TOOLS		PHYSICAL DATA		DISCOVERY		FAQ		SITE MAP

IMPORTANT: The SSD Announcement email list is now available. Major changes are coming in the near future, including possible hostname and/or URL changes. To be notified of such changes, subscribe to this email list.

Please visit this page for more details.


Don't show this message again
HORIZONS Web-Interface
This tool provides a web-based limited interface to JPL's HORIZONS system which can be used to generate ephemerides for solar-system bodies. Full access to HORIZONS features is available via the primary telnet interface. HORIZONS system news shows recent changes and improvements. A web-interface tutorial is available to assist new users.
Current Settings
Ephemeris Type [change] : 	ELEMENTS
Target Body [change] : 	136199 Eris (2003 UB313)
Center [change] : 	Solar System Barycenter (SSB) [500@0]
Time Span [change] : 	Start=JD 2458850.0, Stop=JD 2464329.0, Intervals=500
Table Settings [change] : 	CSV format=YES
Display/Output [change] : 	default (formatted HTML)
Object Data Page
JPL/HORIZONS              136199 Eris (2003 UB313)         2020-May-15 19:45:55
Rec #:  136199 (+COV) Soln.date: 2020-Feb-24_07:39:13   # obs: 1403 (1954-2020)
 
IAU76/J2000 helio. ecliptic osc. elements (au, days, deg., period=Julian yrs):
 
  EPOCH=  2456471.5 ! 2013-Jun-28.00 (TDB)         Residual RMS= .2771
   EC= .4376261721030747   QR= 38.20280809829904   TP= 2545460.486104568
   OM= 36.02175677822271   W=  150.814138277794    IN= 43.90367390202115
   A= 67.93134069052203    MA= 203.3483211118428   ADIST= 97.65987328274502
   PER= 559.9039           N= .001760349           ANGMOM= .12748294
   DAN= 88.87903           DDN= 39.73859           L= 194.0997193
   B= 19.7645609           MOID= 37.26139832       TP= 2257-Feb-17.9861045680
 
Asteroid physical parameters (km, seconds, rotational period in hours):
   GM= n.a.                RAD= n.a.               ROTPER= 25.9
   H= -1.1                 G= .150                 B-V= n.a.
                           ALBEDO= n.a.            STYP= n.a.
 
ASTEROID comments: 
1: soln ref.= JPL#66, OCC=3
2: source=ORB
Results
*******************************************************************************
Ephemeris / WWW_USER Fri May 15 19:45:55 2020 Pasadena, USA      / Horizons    
*******************************************************************************
Target body name: 136199 Eris (2003 UB313)        {source: JPL#66}
Center body name: Solar System Barycenter (0)     {source: DE431}
Center-site name: BODY CENTER
*******************************************************************************
Start time      : A.D. 2020-Jan-01 12:00:00.0000 TDB
Stop  time      : A.D. 2035-Jan-01 12:00:00.0000 TDB
Step-size       : 500 steps
*******************************************************************************
Center geodetic : 0.00000000,0.00000000,0.0000000 {E-lon(deg),Lat(deg),Alt(km)}
Center cylindric: 0.00000000,0.00000000,0.0000000 {E-lon(deg),Dxy(km),Dz(km)}
Center radii    : (undefined)                                                  
Keplerian GM    : 2.9630927492415936E-04 au^3/d^2
Small perturbers: Yes                             {source: SB431-N16}
Output units    : AU-D, deg, Julian Day Number (Tp)                            
Output type     : GEOMETRIC osculating elements
Output format   : 10
Reference frame : ICRF/J2000.0                                                 
Coordinate systm: Ecliptic and Mean Equinox of Reference Epoch                 
*******************************************************************************
Initial IAU76/J2000 heliocentric ecliptic osculating elements (au, days, deg.):
  EPOCH=  2456471.5 ! 2013-Jun-28.00 (TDB)         Residual RMS= .2771         
   EC= .4376261721030747   QR= 38.20280809829904   TP= 2545460.486104568       
   OM= 36.02175677822271   W=  150.814138277794    IN= 43.90367390202115       
  Equivalent ICRF heliocentric equatorial cartesian coordinates (au, au/d):
   X= 8.706311079841974E+01  Y= 4.112390559042412E+01  Z=-5.840360760511530E+00
  VX=-3.456497306104022E-04 VY= 4.780148306381481E-04 VZ= 1.196317145263795E-03
Asteroid physical parameters (km, seconds, rotational period in hours):        
   GM= n.a.                RAD= n.a.               ROTPER= 25.9                
   H= -1.1                 G= .150                 B-V= n.a.                   
                           ALBEDO= n.a.            STYP= n.a.                  
*******************************************************************************
            JDTDB,            Calendar Date (TDB),                     EC,                     QR,                     IN,                     OM,                      W,                     Tp,                      N,                     MA,                     TA,                      A,                     AD,                     PR,
**************************************************************************************************************************************************************************************************************************************************************************************************************************************************
$$SOE
2464219.420000000, A.D. 2034-Sep-13 22:04:48.0000,  4.384227995176064E-01,  3.809537589438959E+01,  4.399307829995583E+01,  3.597640571336077E+01,  1.512171911486741E+02,  2.545667553011413E+06,  1.765229033142109E-03,  2.162253909130338E+02,  1.960537547181930E+02,  6.783640051922647E+01,  9.757742514406334E+01,  2.039395416917655E+05,
2464230.378000000, A.D. 2034-Sep-24 21:04:19.2000,  4.384228007050274E-01,  3.809537585357637E+01,  4.399307841214090E+01,  3.597640567688850E+01,  1.512171907030190E+02,  2.545667552514103E+06,  1.765229030380154E-03,  2.162447353955720E+02,  1.960626773747816E+02,  6.783640058998634E+01,  9.757742532639629E+01,  2.039395420108583E+05,
2464241.336000000, A.D. 2034-Oct-05 20:03:50.4000,  4.384228018805041E-01,  3.809537581445954E+01,  4.399307852359715E+01,  3.597640564067940E+01,  1.512171902529762E+02,  2.545667552014930E+06,  1.765229027556605E-03,  2.162640798863507E+02,  1.960716006180921E+02,  6.783640066232421E+01,  9.757742551018889E+01,  2.039395423370671E+05,
2464252.294000000, A.D. 2034-Oct-16 19:03:21.6000,  4.384228030430913E-01,  3.809537577711739E+01,  4.399307863427837E+01,  3.597640560474818E+01,  1.512171897985860E+02,  2.545667551514041E+06,  1.765229024670483E-03,  2.162834243851933E+02,  1.960805244484460E+02,  6.783640073626520E+01,  9.757742569541301E+01,  2.039395426705051E+05,
2464263.252000000, A.D. 2034-Oct-27 18:02:52.8000,  4.384228041920433E-01,  3.809537574160482E+01,  4.399307874414886E+01,  3.597640556910606E+01,  1.512171893399296E+02,  2.545667551011587E+06,  1.765229021721485E-03,  2.163027688918537E+02,  1.960894488661264E+02,  6.783640081181703E+01,  9.757742588202925E+01,  2.039395430112072E+05,
2464274.210000000, A.D. 2034-Nov-07 17:02:24.0000,  4.384228053264643E-01,  3.809537570799338E+01,  4.399307885316508E+01,  3.597640553376673E+01,  1.512171888770632E+02,  2.545667550507718E+06,  1.765229018708859E-03,  2.163221134061255E+02,  1.960983738714399E+02,  6.783640088899895E+01,  9.757742607000452E+01,  2.039395433592604E+05,
2464285.168000000, A.D. 2034-Nov-18 16:01:55.2000,  4.384228064454424E-01,  3.809537567635272E+01,  4.399307896128304E+01,  3.597640549874406E+01,  1.512171884100672E+02,  2.545667550002605E+06,  1.765229015632067E-03,  2.163414579277485E+02,  1.961072994646688E+02,  6.783640096782479E+01,  9.757742625929686E+01,  2.039395437147267E+05,
2464296.126000000, A.D. 2034-Nov-29 15:01:26.4000,  4.384228075484058E-01,  3.809537564672542E+01,  4.399307906847473E+01,  3.597640546404670E+01,  1.512171879390006E+02,  2.545667549496363E+06,  1.765229012490846E-03,  2.163608024565402E+02,  1.961162256461205E+02,  6.783640104830128E+01,  9.757742644987715E+01,  2.039395440776367E+05,
2464307.084000000, A.D. 2034-Dec-10 14:00:57.6000,  4.384228086345802E-01,  3.809537561916815E+01,  4.399307917470278E+01,  3.597640542968630E+01,  1.512171874639492E+02,  2.545667548989152E+06,  1.765229009284906E-03,  2.163801469922410E+02,  1.961251524160738E+02,  6.783640113043583E+01,  9.757742664170351E+01,  2.039395444480237E+05,
2464318.042000000, A.D. 2034-Dec-21 13:00:28.8000,  4.384228097032886E-01,  3.809537559372896E+01,  4.399307927993456E+01,  3.597640539567293E+01,  1.512171869849991E+02,  2.545667548481117E+06,  1.765229006014099E-03,  2.163994915346008E+02,  1.961340797748084E+02,  6.783640121423223E+01,  9.757742683473550E+01,  2.039395448259049E+05,
2464329.000000000, A.D. 2035-Jan-01 12:00:00.0000,  4.384228107539478E-01,  3.809537557044541E+01,  4.399307938414172E+01,  3.597640536201531E+01,  1.512171865022517E+02,  2.545667547972408E+06,  1.765229002678565E-03,  2.164188360833431E+02,  1.961430077225896E+02,  6.783640129968693E+01,  9.757742702892844E+01,  2.039395452112642E+05,
